CCSDS_OMM_VERS = 2.0
CREATION_DATE  = 
ORIGINATOR     = 

OBJECT_NAME    = SL-3 R/B
OBJECT_ID      = 1988-032B
CENTER_NAME    = EARTH
REF_FRAME      = TEME
TIME_SYSTEM    = UTC
MEAN_ELEMENT_THEORY = SGP/SGP4

EPOCH          = 2026-03-11T05:55:20.024256
MEAN_MOTION    = 15.19930295
ECCENTRICITY   = .00245364
INCLINATION    = 97.5196
RA_OF_ASC_NODE = 53.4922
ARG_OF_PERICENTER = 225.7331
MEAN_ANOMALY   = 134.1891

EPHEMERIS_TYPE = 0
CLASSIFICATION_TYPE = U
NORAD_CAT_ID   = 19046
ELEMENT_SET_NO = 999
REV_AT_EPOCH   = 5234
BSTAR          = .28361224E-3
MEAN_MOTION_DOT = .6074E-4
MEAN_MOTION_DDOT = 0

CCSDS_OMM_VERS = 2.0
CREATION_DATE  = 
ORIGINATOR     = 

OBJECT_NAME    = SL-16 R/B
OBJECT_ID      = 1988-039B
CENTER_NAME    = EARTH
REF_FRAME      = TEME
TIME_SYSTEM    = UTC
MEAN_ELEMENT_THEORY = SGP/SGP4

EPOCH          = 2026-03-11T07:39:30.013632
MEAN_MOTION    = 14.19615606
ECCENTRICITY   = .00228679
INCLINATION    = 71.0136
RA_OF_ASC_NODE = 65.1018
ARG_OF_PERICENTER = 331.9763
MEAN_ANOMALY   = 28.0129

EPHEMERIS_TYPE = 0
CLASSIFICATION_TYPE = U
NORAD_CAT_ID   = 19120
ELEMENT_SET_NO = 999
REV_AT_EPOCH   = 95861
BSTAR          = .40439022E-4
MEAN_MOTION_DOT = .37E-6
MEAN_MOTION_DDOT = 0

CCSDS_OMM_VERS = 2.0
CREATION_DATE  = 
ORIGINATOR     = 

OBJECT_NAME    = COSMOS 1953
OBJECT_ID      = 1988-050A
CENTER_NAME    = EARTH
REF_FRAME      = TEME
TIME_SYSTEM    = UTC
MEAN_ELEMENT_THEORY = SGP/SGP4

EPOCH          = 2026-03-11T07:51:52.759872
MEAN_MOTION    = 15.28559134
ECCENTRICITY   = .00125775
INCLINATION    = 82.5102
RA_OF_ASC_NODE = 156.5999
ARG_OF_PERICENTER = 117.4744
MEAN_ANOMALY   = 242.7776

EPHEMERIS_TYPE = 0
CLASSIFICATION_TYPE = U
NORAD_CAT_ID   = 19210
ELEMENT_SET_NO = 999
REV_AT_EPOCH   = 3803
BSTAR          = .33454482E-3
MEAN_MOTION_DOT = .9348E-4
MEAN_MOTION_DDOT = 0

CCSDS_OMM_VERS = 2.0
CREATION_DATE  = 
ORIGINATOR     = 

OBJECT_NAME    = SL-8 R/B
OBJECT_ID      = 1988-053B
CENTER_NAME    = EARTH
REF_FRAME      = TEME
TIME_SYSTEM    = UTC
MEAN_ELEMENT_THEORY = SGP/SGP4

EPOCH          = 2026-03-11T07:54:54.477216
MEAN_MOTION    = 14.38916797
ECCENTRICITY   = .00214466
INCLINATION    = 74.0458
RA_OF_ASC_NODE = 109.4430
ARG_OF_PERICENTER = 288.4865
MEAN_ANOMALY   = 156.9852

EPHEMERIS_TYPE = 0
CLASSIFICATION_TYPE = U
NORAD_CAT_ID   = 19257
ELEMENT_SET_NO = 999
REV_AT_EPOCH   = 97683
BSTAR          = .96979541E-4
MEAN_MOTION_DOT = .273E-5
MEAN_MOTION_DDOT = 0

CCSDS_OMM_VERS = 2.0
CREATION_DATE  = 
ORIGINATOR     = 

OBJECT_NAME    = COSMOS 1975
OBJECT_ID      = 1988-093A
CENTER_NAME    = EARTH
REF_FRAME      = TEME
TIME_SYSTEM    = UTC
MEAN_ELEMENT_THEORY = SGP/SGP4

EPOCH          = 2026-03-11T03:58:15.336192
MEAN_MOTION    = 15.28093792
ECCENTRICITY   = .00122775
INCLINATION    = 82.5181
RA_OF_ASC_NODE = 116.2036
ARG_OF_PERICENTER = 158.4381
MEAN_ANOMALY   = 201.7378

EPHEMERIS_TYPE = 0
CLASSIFICATION_TYPE = U
NORAD_CAT_ID   = 19573
ELEMENT_SET_NO = 999
REV_AT_EPOCH   = 1963
BSTAR          = .25598009E-3
MEAN_MOTION_DOT = .7058E-4
MEAN_MOTION_DDOT = 0

CCSDS_OMM_VERS = 2.0
CREATION_DATE  = 
ORIGINATOR     = 

OBJECT_NAME    = SL-14 R/B
OBJECT_ID      = 1988-093B
CENTER_NAME    = EARTH
REF_FRAME      = TEME
TIME_SYSTEM    = UTC
MEAN_ELEMENT_THEORY = SGP/SGP4

EPOCH          = 2026-03-11T06:59:08.497248
MEAN_MOTION    = 14.85658793
ECCENTRICITY   = .00216463
INCLINATION    = 82.5308
RA_OF_ASC_NODE = 40.5402
ARG_OF_PERICENTER = 36.4305
MEAN_ANOMALY   = 90.8277

EPHEMERIS_TYPE = 0
CLASSIFICATION_TYPE = U
NORAD_CAT_ID   = 19574
ELEMENT_SET_NO = 999
REV_AT_EPOCH   = 125
BSTAR          = .81342494E-4
MEAN_MOTION_DOT = .732E-5
MEAN_MOTION_DDOT = 0

CCSDS_OMM_VERS = 2.0
CREATION_DATE  = 
ORIGINATOR     = 

OBJECT_NAME    = SL-16 R/B
OBJECT_ID      = 1988-102B
CENTER_NAME    = EARTH
REF_FRAME      = TEME
TIME_SYSTEM    = UTC
MEAN_ELEMENT_THEORY = SGP/SGP4

EPOCH          = 2026-03-11T07:37:23.066112
MEAN_MOTION    = 14.16153142
ECCENTRICITY   = .0014076
INCLINATION    = 71.0000
RA_OF_ASC_NODE = 148.0725
ARG_OF_PERICENTER = 359.0878
MEAN_ANOMALY   = 1.0217

EPHEMERIS_TYPE = 0
CLASSIFICATION_TYPE = U
NORAD_CAT_ID   = 19650
ELEMENT_SET_NO = 999
REV_AT_EPOCH   = 92712
BSTAR          = .17401302E-3
MEAN_MOTION_DOT = .297E-5
MEAN_MOTION_DDOT = 0

CCSDS_OMM_VERS = 2.0
CREATION_DATE  = 
ORIGINATOR     = 

OBJECT_NAME    = INTERCOSMOS 24
OBJECT_ID      = 1989-080A
CENTER_NAME    = EARTH
REF_FRAME      = TEME
TIME_SYSTEM    = UTC
MEAN_ELEMENT_THEORY = SGP/SGP4

EPOCH          = 2026-03-11T03:40:05.541024
MEAN_MOTION    = 12.59560258
ECCENTRICITY   = .11866808
INCLINATION    = 82.6024
RA_OF_ASC_NODE = 103.4514
ARG_OF_PERICENTER = 289.4208
MEAN_ANOMALY   = 58.2533

EPHEMERIS_TYPE = 0
CLASSIFICATION_TYPE = U
NORAD_CAT_ID   = 20261
ELEMENT_SET_NO = 999
REV_AT_EPOCH   = 66698
BSTAR          = .24465585E-3
MEAN_MOTION_DOT = .821E-5
MEAN_MOTION_DDOT = 0

CCSDS_OMM_VERS = 2.0
CREATION_DATE  = 
ORIGINATOR     = 

OBJECT_NAME    = SL-14 R/B
OBJECT_ID      = 1989-080C
CENTER_NAME    = EARTH
REF_FRAME      = TEME
TIME_SYSTEM    = UTC
MEAN_ELEMENT_THEORY = SGP/SGP4

EPOCH          = 2026-03-11T07:35:25.562976
MEAN_MOTION    = 12.50496014
ECCENTRICITY   = .1230626
INCLINATION    = 82.5975
RA_OF_ASC_NODE = 172.1424
ARG_OF_PERICENTER = 181.0327
MEAN_ANOMALY   = 178.8197

EPHEMERIS_TYPE = 0
CLASSIFICATION_TYPE = U
NORAD_CAT_ID   = 20262
ELEMENT_SET_NO = 999
REV_AT_EPOCH   = 66035
BSTAR          = .19407198E-3
MEAN_MOTION_DOT = .661E-5
MEAN_MOTION_DDOT = 0

CCSDS_OMM_VERS = 2.0
CREATION_DATE  = 
ORIGINATOR     = 

OBJECT_NAME    = DELTA 1 R/B
OBJECT_ID      = 1989-089B
CENTER_NAME    = EARTH
REF_FRAME      = TEME
TIME_SYSTEM    = UTC
MEAN_ELEMENT_THEORY = SGP/SGP4

EPOCH          = 2026-03-11T06:37:48.909792
MEAN_MOTION    = 14.50664328
ECCENTRICITY   = .00705424
INCLINATION    = 97.0705
RA_OF_ASC_NODE = 277.4627
ARG_OF_PERICENTER = 117.0494
MEAN_ANOMALY   = 243.7926

EPHEMERIS_TYPE = 0
CLASSIFICATION_TYPE = U
NORAD_CAT_ID   = 20323
ELEMENT_SET_NO = 999
REV_AT_EPOCH   = 89596
BSTAR          = .10424091E-3
MEAN_MOTION_DOT = .388E-5
MEAN_MOTION_DDOT = 0

CCSDS_OMM_VERS = 2.0
CREATION_DATE  = 
ORIGINATOR     = 

OBJECT_NAME    = ARIANE 40 R/B
OBJECT_ID      = 1990-005H
CENTER_NAME    = EARTH
REF_FRAME      = TEME
TIME_SYSTEM    = UTC
MEAN_ELEMENT_THEORY = SGP/SGP4

EPOCH          = 2026-03-11T03:12:45.630144
MEAN_MOTION    = 14.39871501
ECCENTRICITY   = .00099491
INCLINATION    = 98.3080
RA_OF_ASC_NODE = 130.7523
ARG_OF_PERICENTER = 194.2151
MEAN_ANOMALY   = 165.8760

EPHEMERIS_TYPE = 0
CLASSIFICATION_TYPE = U
NORAD_CAT_ID   = 20443
ELEMENT_SET_NO = 999
REV_AT_EPOCH   = 89301
BSTAR          = .11030502E-3
MEAN_MOTION_DOT = .304E-5
MEAN_MOTION_DDOT = 0

CCSDS_OMM_VERS = 2.0
CREATION_DATE  = 
ORIGINATOR     = 

OBJECT_NAME    = DELTA 2 R/B(1)
OBJECT_ID      = 1990-008B
CENTER_NAME    = EARTH
REF_FRAME      = TEME
TIME_SYSTEM    = UTC
MEAN_ELEMENT_THEORY = SGP/SGP4

EPOCH          = 2026-03-11T07:11:01.256640
MEAN_MOTION    = 15.56213961
ECCENTRICITY   = .00849323
INCLINATION    = 35.6037
RA_OF_ASC_NODE = 164.2881
ARG_OF_PERICENTER = 273.5891
MEAN_ANOMALY   = 85.5135

EPHEMERIS_TYPE = 0
CLASSIFICATION_TYPE = U
NORAD_CAT_ID   = 20453
ELEMENT_SET_NO = 999
REV_AT_EPOCH   = 92638
BSTAR          = .74552103E-3
MEAN_MOTION_DOT = .6423E-3
MEAN_MOTION_DDOT = 0

